{
  "norad_id": 54185,
  "name": "STARLINK-5235",
  "history": [
    {
      "epoch": "2026-03-28T20:21:39.655296",
      "apogee_km": 540.665690275182,
      "perigee_km": 538.8065810487042,
      "latitude_deg": 33.107191641460325,
      "longitude_deg": 39.94406144018285,
      "semi_major_axis_km": 6917.873135661943,
      "eccentricity": 0.00013437,
      "inclination_deg": 53.2169,
      "raan_deg": 277.8523,
      "arg_perigee_deg": 88.9229,
      "mean_anomaly_deg": 271.1917,
      "mean_motion_rev_day": 15.08842373
    }
  ]
}